[{"OBJECT_NAME":"ONEWEB-0681","OBJECT_ID":"2023-068H","EPOCH":"2025-11-02T10:35:08.600928","MEAN_MOTION":13.21826813,"ECCENTRICITY":9.38e-5,"INCLINATION":87.9168,"RA_OF_ASC_NODE":289.2124,"ARG_OF_PERICENTER":107.0899,"MEAN_ANOMALY":253.0337,"EPHEMERIS_TYPE":0,"CLASSIFICATION_TYPE":"U","NORAD_CAT_ID":56717,"ELEMENT_SET_NO":999,"REV_AT_EPOCH":12113,"BSTAR":0.00037088,"MEAN_MOTION_DOT":1.66e-6,"MEAN_MOTION_DDOT":0},{"OBJECT_NAME":"ONEWEB-0682","OBJECT_ID":"2023-068J","EPOCH":"2025-11-02T11:01:19.581024","MEAN_MOTION":13.15548553,"ECCENTRICITY":0.0001831,"INCLINATION":87.8958,"RA_OF_ASC_NODE":304.4454,"ARG_OF_PERICENTER":74.7414,"MEAN_ANOMALY":285.3918,"EPHEMERIS_TYPE":0,"CLASSIFICATION_TYPE":"U","NORAD_CAT_ID":56718,"ELEMENT_SET_NO":999,"REV_AT_EPOCH":11964,"BSTAR":0.00047805,"MEAN_MOTION_DOT":1.93e-6,"MEAN_MOTION_DDOT":0},{"OBJECT_NAME":"ONEWEB-0683","OBJECT_ID":"2023-068K","EPOCH":"2025-11-02T11:32:07.494720","MEAN_MOTION":13.15549732,"ECCENTRICITY":0.0001896,"INCLINATION":87.8961,"RA_OF_ASC_NODE":304.4214,"ARG_OF_PERICENTER":82.1766,"MEAN_ANOMALY":277.958,"EPHEMERIS_TYPE":0,"CLASSIFICATION_TYPE":"U","NORAD_CAT_ID":56719,"ELEMENT_SET_NO":999,"REV_AT_EPOCH":11961,"BSTAR":-0.00026099,"MEAN_MOTION_DOT":-8.5e-7,"MEAN_MOTION_DDOT":0},{"OBJECT_NAME":"ONEWEB-0684","OBJECT_ID":"2023-068L","EPOCH":"2025-11-02T11:43:32.231136","MEAN_MOTION":13.1554949,"ECCENTRICITY":0.0003115,"INCLINATION":87.8955,"RA_OF_ASC_NODE":304.4154,"ARG_OF_PERICENTER":105.439,"MEAN_ANOMALY":254.7084,"EPHEMERIS_TYPE":0,"CLASSIFICATION_TYPE":"U","NORAD_CAT_ID":56720,"ELEMENT_SET_NO":999,"REV_AT_EPOCH":11944,"BSTAR":-0.00023689,"MEAN_MOTION_DOT":-7.6e-7,"MEAN_MOTION_DDOT":0},{"OBJECT_NAME":"ONEWEB-0686","OBJECT_ID":"2023-068M","EPOCH":"2025-11-02T11:14:59.008992","MEAN_MOTION":13.16595947,"ECCENTRICITY":0.0002194,"INCLINATION":87.8986,"RA_OF_ASC_NODE":273.9538,"ARG_OF_PERICENTER":78.6983,"MEAN_ANOMALY":281.4394,"EPHEMERIS_TYPE":0,"CLASSIFICATION_TYPE":"U","NORAD_CAT_ID":56721,"ELEMENT_SET_NO":999,"REV_AT_EPOCH":12188,"BSTAR":0.00017871,"MEAN_MOTION_DOT":8.1e-7,"MEAN_MOTION_DDOT":0},{"OBJECT_NAME":"ONEWEB-0694","OBJECT_ID":"2023-068N","EPOCH":"2025-11-02T10:27:06.304032","MEAN_MOTION":13.1659464,"ECCENTRICITY":0.0001853,"INCLINATION":87.9002,"RA_OF_ASC_NODE":273.8988,"ARG_OF_PERICENTER":69.6927,"MEAN_ANOMALY":290.4403,"EPHEMERIS_TYPE":0,"CLASSIFICATION_TYPE":"U","NORAD_CAT_ID":56722,"ELEMENT_SET_NO":999,"REV_AT_EPOCH":12193,"BSTAR":-0.00023737,"MEAN_MOTION_DOT":-7.8e-7,"MEAN_MOTION_DDOT":0},{"OBJECT_NAME":"ONEWEB-0696","OBJECT_ID":"2023-068P","EPOCH":"2025-11-02T10:41:55.493088","MEAN_MOTION":13.15549344,"ECCENTRICITY":0.0002016,"INCLINATION":87.8957,"RA_OF_ASC_NODE":304.4799,"ARG_OF_PERICENTER":100.7492,"MEAN_ANOMALY":259.3865,"EPHEMERIS_TYPE":0,"CLASSIFICATION_TYPE":"U","NORAD_CAT_ID":56723,"ELEMENT_SET_NO":999,"REV_AT_EPOCH":11955,"BSTAR":0.00037181,"MEAN_MOTION_DOT":1.53e-6,"MEAN_MOTION_DDOT":0},{"OBJECT_NAME":"ONEWEB-0703","OBJECT_ID":"2023-068Q","EPOCH":"2025-11-02T10:55:36.297408","MEAN_MOTION":13.15547439,"ECCENTRICITY":0.000207,"INCLINATION":87.8955,"RA_OF_ASC_NODE":304.4603,"ARG_OF_PERICENTER":121.3536,"MEAN_ANOMALY":238.7797,"EPHEMERIS_TYPE":0,"CLASSIFICATION_TYPE":"U","NORAD_CAT_ID":56724,"ELEMENT_SET_NO":999,"REV_AT_EPOCH":11944,"BSTAR":0.00026187,"MEAN_MOTION_DOT":1.11e-6,"MEAN_MOTION_DDOT":0},{"OBJECT_NAME":"ONEWEB-0721","OBJECT_ID":"2023-068R","EPOCH":"2025-11-02T00:13:42.724992","MEAN_MOTION":13.22450399,"ECCENTRICITY":0.00015065,"INCLINATION":86.6814,"RA_OF_ASC_NODE":157.9715,"ARG_OF_PERICENTER":81.9127,"MEAN_ANOMALY":278.2177,"EPHEMERIS_TYPE":0,"CLASSIFICATION_TYPE":"U","NORAD_CAT_ID":56725,"ELEMENT_SET_NO":999,"REV_AT_EPOCH":12791,"BSTAR":0.00032305222,"MEAN_MOTION_DOT":1.49e-6,"MEAN_MOTION_DDOT":0},{"OBJECT_NAME":"ONEWEB-0015","OBJECT_ID":"2024-188A","EPOCH":"2025-11-02T09:40:08.548608","MEAN_MOTION":13.11416881,"ECCENTRICITY":0.0001057,"INCLINATION":87.8849,"RA_OF_ASC_NODE":66.2624,"ARG_OF_PERICENTER":96.8199,"MEAN_ANOMALY":263.305,"EPHEMERIS_TYPE":0,"CLASSIFICATION_TYPE":"U","NORAD_CAT_ID":61594,"ELEMENT_SET_NO":999,"REV_AT_EPOCH":5473,"BSTAR":0.0013229,"MEAN_MOTION_DOT":4.82e-6,"MEAN_MOTION_DDOT":0},{"OBJECT_NAME":"ONEWEB-0687","OBJECT_ID":"2024-188B","EPOCH":"2025-11-02T08:00:14.484672","MEAN_MOTION":13.17651564,"ECCENTRICITY":0.0001517,"INCLINATION":87.9109,"RA_OF_ASC_NODE":51.0128,"ARG_OF_PERICENTER":81.0132,"MEAN_ANOMALY":279.1171,"EPHEMERIS_TYPE":0,"CLASSIFICATION_TYPE":"U","NORAD_CAT_ID":61595,"ELEMENT_SET_NO":999,"REV_AT_EPOCH":5602,"BSTAR":-8.8835e-6,"MEAN_MOTION_DOT":9.0e-8,"MEAN_MOTION_DDOT":0},{"OBJECT_NAME":"ONEWEB-0688","OBJECT_ID":"2024-188C","EPOCH":"2025-11-02T08:41:33.146880","MEAN_MOTION":13.17650914,"ECCENTRICITY":4.99e-5,"INCLINATION":87.9117,"RA_OF_ASC_NODE":51.0075,"ARG_OF_PERICENTER":87.7465,"MEAN_ANOMALY":272.3724,"EPHEMERIS_TYPE":0,"CLASSIFICATION_TYPE":"U","NORAD_CAT_ID":61596,"ELEMENT_SET_NO":999,"REV_AT_EPOCH":5602,"BSTAR":0.00016754,"MEAN_MOTION_DOT":7.8e-7,"MEAN_MOTION_DDOT":0},{"OBJECT_NAME":"ONEWEB-0689","OBJECT_ID":"2024-188D","EPOCH":"2025-11-02T08:39:04.341024","MEAN_MOTION":13.11418194,"ECCENTRICITY":0.0001652,"INCLINATION":87.8823,"RA_OF_ASC_NODE":66.2114,"ARG_OF_PERICENTER":88.0184,"MEAN_ANOMALY":272.1133,"EPHEMERIS_TYPE":0,"CLASSIFICATION_TYPE":"U","NORAD_CAT_ID":61597,"ELEMENT_SET_NO":999,"REV_AT_EPOCH":5472,"BSTAR":-0.0015167,"MEAN_MOTION_DOT":-5.25e-6,"MEAN_MOTION_DDOT":0},{"OBJECT_NAME":"ONEWEB-0690","OBJECT_ID":"2024-188E","EPOCH":"2025-11-02T08:53:44.217024","MEAN_MOTION":13.11418108,"ECCENTRICITY":0.0001962,"INCLINATION":87.8864,"RA_OF_ASC_NODE":66.2105,"ARG_OF_PERICENTER":121.8741,"MEAN_ANOMALY":238.2578,"EPHEMERIS_TYPE":0,"CLASSIFICATION_TYPE":"U","NORAD_CAT_ID":61598,"ELEMENT_SET_NO":999,"REV_AT_EPOCH":5490,"BSTAR":-0.0011595,"MEAN_MOTION_DOT":-3.98e-6,"MEAN_MOTION_DDOT":0},{"OBJECT_NAME":"ONEWEB-0691","OBJECT_ID":"2024-188F","EPOCH":"2025-11-02T08:46:23.926944","MEAN_MOTION":13.11416329,"ECCENTRICITY":0.0001253,"INCLINATION":87.8791,"RA_OF_ASC_NODE":66.1312,"ARG_OF_PERICENTER":101.6891,"MEAN_ANOMALY":258.4378,"EPHEMERIS_TYPE":0,"CLASSIFICATION_TYPE":"U","NORAD_CAT_ID":61599,"ELEMENT_SET_NO":999,"REV_AT_EPOCH":5475,"BSTAR":-0.0021654,"MEAN_MOTION_DOT":-7.55e-6,"MEAN_MOTION_DDOT":0},{"OBJECT_NAME":"ONEWEB-0692","OBJECT_ID":"2024-188G","EPOCH":"2025-11-02T09:15:43.200288","MEAN_MOTION":13.1142096,"ECCENTRICITY":0.0002722,"INCLINATION":87.8838,"RA_OF_ASC_NODE":66.2605,"ARG_OF_PERICENTER":93.7895,"MEAN_ANOMALY":266.3544,"EPHEMERIS_TYPE":0,"CLASSIFICATION_TYPE":"U","NORAD_CAT_ID":61600,"ELEMENT_SET_NO":999,"REV_AT_EPOCH":5474,"BSTAR":-0.00046779,"MEAN_MOTION_DOT":-1.53e-6,"MEAN_MOTION_DDOT":0},{"OBJECT_NAME":"ONEWEB-0693","OBJECT_ID":"2024-188H","EPOCH":"2025-11-02T05:19:51.763296","MEAN_MOTION":13.17649931,"ECCENTRICITY":0.00017705,"INCLINATION":87.9125,"RA_OF_ASC_NODE":51.0544,"ARG_OF_PERICENTER":129.7548,"MEAN_ANOMALY":230.374,"EPHEMERIS_TYPE":0,"CLASSIFICATION_TYPE":"U","NORAD_CAT_ID":61601,"ELEMENT_SET_NO":999,"REV_AT_EPOCH":5599,"BSTAR":5.4159924e-5,"MEAN_MOTION_DOT":3.4e-7,"MEAN_MOTION_DDOT":0},{"OBJECT_NAME":"ONEWEB-0695","OBJECT_ID":"2024-188J","EPOCH":"2025-11-02T08:41:31.214976","MEAN_MOTION":13.1141802,"ECCENTRICITY":0.0001979,"INCLINATION":87.8841,"RA_OF_ASC_NODE":66.2535,"ARG_OF_PERICENTER":85.9541,"MEAN_ANOMALY":274.1813,"EPHEMERIS_TYPE":0,"CLASSIFICATION_TYPE":"U","NORAD_CAT_ID":61602,"ELEMENT_SET_NO":999,"REV_AT_EPOCH":5473,"BSTAR":-0.0014906,"MEAN_MOTION_DOT":-5.16e-6,"MEAN_MOTION_DDOT":0},{"OBJECT_NAME":"ONEWEB-0697","OBJECT_ID":"2024-188K","EPOCH":"2025-11-02T09:27:54.520128","MEAN_MOTION":13.11420904,"ECCENTRICITY":0.0002493,"INCLINATION":87.8841,"RA_OF_ASC_NODE":66.2379,"ARG_OF_PERICENTER":94.2017,"MEAN_ANOMALY":265.9395,"EPHEMERIS_TYPE":0,"CLASSIFICATION_TYPE":"U","NORAD_CAT_ID":61603,"ELEMENT_SET_NO":999,"REV_AT_EPOCH":5472,"BSTAR":0.001149,"MEAN_MOTION_DOT":4.2e-6,"MEAN_MOTION_DDOT":0},{"OBJECT_NAME":"ONEWEB-0698","OBJECT_ID":"2024-188L","EPOCH":"2025-11-02T08:56:09.628224","MEAN_MOTION":13.11417907,"ECCENTRICITY":0.000275,"INCLINATION":87.8841,"RA_OF_ASC_NODE":66.2572,"ARG_OF_PERICENTER":110.6979,"MEAN_ANOMALY":249.4444,"EPHEMERIS_TYPE":0,"CLASSIFICATION_TYPE":"U","NORAD_CAT_ID":61604,"ELEMENT_SET_NO":999,"REV_AT_EPOCH":5474,"BSTAR":-0.0015539,"MEAN_MOTION_DOT":-5.38e-6,"MEAN_MOTION_DDOT":0},{"OBJECT_NAME":"ONEWEB-0699","OBJECT_ID":"2024-188M","EPOCH":"2025-11-02T08:34:38.959104","MEAN_MOTION":13.10376604,"ECCENTRICITY":0.0002279,"INCLINATION":87.8799,"RA_OF_ASC_NODE":81.4746,"ARG_OF_PERICENTER":94.2233,"MEAN_ANOMALY":265.9155,"EPHEMERIS_TYPE":0,"CLASSIFICATION_TYPE":"U","NORAD_CAT_ID":61605,"ELEMENT_SET_NO":999,"REV_AT_EPOCH":5360,"BSTAR":0.0011594,"MEAN_MOTION_DOT":4.17e-6,"MEAN_MOTION_DDOT":0},{"OBJECT_NAME":"ONEWEB-0700","OBJECT_ID":"2024-188N","EPOCH":"2025-11-02T08:37:02.504064","MEAN_MOTION":13.10375547,"ECCENTRICITY":0.0002168,"INCLINATION":87.8793,"RA_OF_ASC_NODE":81.357,"ARG_OF_PERICENTER":80.1602,"MEAN_ANOMALY":279.977,"EPHEMERIS_TYPE":0,"CLASSIFICATION_TYPE":"U","NORAD_CAT_ID":61606,"ELEMENT_SET_NO":999,"REV_AT_EPOCH":5359,"BSTAR":0.0013477,"MEAN_MOTION_DOT":4.83e-6,"MEAN_MOTION_DDOT":0},{"OBJECT_NAME":"ONEWEB-0701","OBJECT_ID":"2024-188P","EPOCH":"2025-11-02T10:50:54.377664","MEAN_MOTION":13.1037222,"ECCENTRICITY":0.0002468,"INCLINATION":87.8784,"RA_OF_ASC_NODE":81.4576,"ARG_OF_PERICENTER":93.6555,"MEAN_ANOMALY":266.4854,"EPHEMERIS_TYPE":0,"CLASSIFICATION_TYPE":"U","NORAD_CAT_ID":61607,"ELEMENT_SET_NO":999,"REV_AT_EPOCH":5361,"BSTAR":0.0015992,"MEAN_MOTION_DOT":5.71e-6,"MEAN_MOTION_DDOT":0},{"OBJECT_NAME":"ONEWEB-0702","OBJECT_ID":"2024-188Q","EPOCH":"2025-11-02T08:12:14.403168","MEAN_MOTION":13.11414749,"ECCENTRICITY":0.0002564,"INCLINATION":87.8791,"RA_OF_ASC_NODE":66.1656,"ARG_OF_PERICENTER":88.1497,"MEAN_ANOMALY":271.9924,"EPHEMERIS_TYPE":0,"CLASSIFICATION_TYPE":"U","NORAD_CAT_ID":61608,"ELEMENT_SET_NO":999,"REV_AT_EPOCH":5475,"BSTAR":0.00097296,"MEAN_MOTION_DOT":3.58e-6,"MEAN_MOTION_DDOT":0}]
